COSMOS 1892             
1 18421U 87088A   21127.92750407  .00000786  00000-0  37357-4 0  9994
2 18421  82.4976 312.3149 0015466  24.5631 335.6336 15.17606219833753
SL-14 R/B               
1 18749U 88001B   21127.91248806  .00000057  00000-0  41062-5 0  9997
2 18749  82.5166  53.5726 0017606 312.4299 116.4553 14.83257486779968
COSMOS 1933             
1 18958U 88020A   21127.84195538  .00000032  00000-0  20537-6 0  9993
2 18958  82.5293 172.3155 0013004 123.2475 236.9999 15.03909791783838
SL-3 R/B                
1 19046U 88032B   21127.92591936  .00000518  00000-0  42418-4 0  9995
2 19046  97.3866 140.3241 0036934 179.8522 180.2721 15.02903946785690
SL-16 R/B               
1 19120U 88039B   21127.89995404 -.00000028  00000-0  97648-5 0  9992
2 19120  71.0152 202.9482 0021698 175.6633 184.4684 14.19222400707683
COSMOS 1953             
1 19210U 88050A   21127.93377672  .00000240  00000-0  14271-4 0  9996
2 19210  82.5160  94.8088 0014468  91.3576 268.9309 15.06252654791637
SL-8 R/B                
1 19257U 88053B   21128.22286828 -.00000011  00000-0  51565-5 0  9990
2 19257  74.0466 123.8031 0019959  19.1788 351.7032 14.37520466722952
COSMOS 1975             
1 19573U 88093A   21127.87923281  .00000120  00000-0  63693-5 0  9991
2 19573  82.5226  49.8843 0015241 133.1220 227.1285 15.05154223773443
SL-14 R/B               
1 19574U 88093B   21127.83482014  .00000066  00000-0  49889-5 0  9992
2 19574  82.5320 256.6978 0023063 111.0982   1.5691 14.83368742738957
SL-16 R/B               
1 19650U 88102B   21128.13394579  .00000225  00000-0  13861-3 0  9996
2 19650  70.9995 267.1661 0014557 188.4486 171.6395 14.15802697677119
INTERCOSMOS 24          
1 20261U 89080A   21127.82993246  .00000074  00000-0  12975-4 0  9991
2 20261  82.6047 170.3704 1203309  59.3702 312.0500 12.56200214444721
SL-14 R/B               
1 20262U 89080C   21127.77108321  .00000048  00000-0  14027-4 0  9999
2 20262  82.5974 226.1678 1235554 257.6534  88.3851 12.48965206439471
DELTA 2 R/B(1)          
1 20303U 89085B   21127.72466236  .00001766  00000-0  55993-4 0  9992
2 20303  35.6399 131.1590 0091187 183.1036 176.9134 15.29004231718232
DELTA 1 R/B             
1 20323U 89089B   21127.84899806  .00000039  00000-0  19430-4 0  9992
2 20323  97.1187 228.5216 0070176 291.0046  68.3653 14.48397594639827
ARIANE 40 R/B           
1 20443U 90005H   21127.80651125  .00000005  00000-0  16183-4 0  9996
2 20443  98.5310 194.3415 0011673  96.6908 263.5608 14.38124643638737
DELTA 2 R/B(1)          
1 20453U 90008B   21128.15815500  .00000464  00000-0  28964-4 0  9997
2 20453  35.6226 140.4375 0277057 137.2687 224.9928 14.86466010659525
COSMOS 2058             
1 20465U 90010A   21127.93087877  .00000302  00000-0  23152-4 0  9991
2 20465  82.4871 321.0780 0015279 181.6452 178.4723 14.98196573676904
SL-14 R/B               
1 20466U 90010B   21128.09919514  .00000082  00000-0  74675-5 0  9994
2 20466  82.5002 122.9564 0020334 355.5592   4.5438 14.81421784687850
SL-14 R/B               
1 20511U 90018B   21127.90512951  .00000062  00000-0  50732-5 0  9992
2 20511  82.5239  70.9614 0018618 130.4249 289.9840 14.80076452661105
HST                     
1 20580U 90037B   21127.92704934  .00000497  00000-0  19123-4 0  9995
2 20580  28.4709 333.2293 0002635 349.8517 112.4527 15.09632506504935
SL-16 R/B               
1 20625U 90046B   21127.92003310 -.00000287  00000-0 -12431-3 0  9998
2 20625  71.0014  47.1485 0011952 112.7781 247.4605 14.14668848598756
COSMOS 2084             
1 20663U 90055A   21127.80753386 -.00000006  00000-0  17670-4 0  9991
2 20663  62.7931 165.0947 0063886   0.6916 359.4255 14.92234756671754
SL-6 R/B(2)             
1 20666U 90055D   21128.20817488  .00000055  00000-0  23178-4 0  9996
2 20666  62.7853  79.3681 0093147  30.3375 330.3063 14.92482213673237
SL-8 R/B                
1 20775U 90078B   21127.90392820  .00000868  00000-0  41553-4 0  9995
2 20775  82.9241 318.8274 0566626 268.6841  84.9411 14.35664731552276
SL-8 R/B                
1 21088U 91006B   21128.23409888  .00000031  00000-0  15645-4 0  9990
2 21088  82.9459  43.7519 0021476 304.2639 164.9034 13.77163141521182
OKEAN-3                 
1 21397U 91039A   21128.03051836  .00000207  00000-0  17286-4 0  9991
2 21397  82.5238 228.1282 0018425 158.7552 201.4438 14.93087851621760
COSMOS 2151             
1 21422U 91042A   21128.08407570  .00000183  00000-0  15422-4 0  9992
2 21422  82.4994 333.8560 0013005 224.0705 135.9479 14.92247482620375
SL-14 R/B               
1 21423U 91042B   21127.89365294  .00000064  00000-0  54390-5 0  9993
2 21423  82.4945  73.6712 0016057 277.2404  82.6984 14.79826170591644
ERS-1                   
1 21574U 91050A   21127.85569663  .00000024  00000-0  22635-4 0  9993
2 21574  98.6443  88.1152 0033868  44.0276 316.3599 14.37794983561712
ARIANE 40 R/B           
1 21610U 91050F   21127.84189291  .00000015  00000-0  18339-4 0  9994
2 21610  98.4249 199.1777 0003472  28.0725  87.6291 14.40945580564412
INTERCOSMOS 25          
1 21819U 91086A   21127.92549134  .00000725  00000-0  14794-3 0  9997
2 21819  82.5867 291.8616 1515478 300.6178  45.3945 12.05259236283376
SL-8 R/B                
1 21876U 92008B   21127.78927950  .00000124  00000-0  11236-3 0  9996
2 21876  82.9240 141.3671 0035552  30.6159 142.2859 13.75674450466467
SL-8 R/B                
1 21938U 92020B   21127.79629466  .00000020  00000-0  52587-5 0  9992
2 21938  82.9339  25.7683 0028941 186.0245 236.5082 13.75286612458251
COSMOS 2219             
1 22219U 92076A   21128.21791742 -.00000183  00000-0 -71727-4 0  9999
2 22219  71.0569 109.2774 0017375  11.7786 348.3739 14.13651727469035
SL-16 R/B               
1 22220U 92076B   21127.93607057 -.00000143  00000-0 -47586-4 0  9996
2 22220  70.9992 308.5224 0015083 267.9957 199.7818 14.16467742471627
COSMOS 2221             
1 22236U 92080A   21127.82327529  .00000168  00000-0  15549-4 0  9998
2 22236  82.5066 157.1410 0015730 330.0162  30.0153 14.88046462517507
SL-16 R/B               
1 22285U 92093B   21127.69714273  .00000269  00000-0  16341-3 0  9999
2 22285  71.0200 112.2764 0002678 148.1074 212.0211 14.15061241463177
COSMOS 2228             
1 22286U 92094A   21128.19847257  .00000199  00000-0  18742-4 0  9996
2 22286  82.5174 113.4113 0022745  82.9106 277.4697 14.88269160533816
SL-16 R/B               
1 22566U 93016B   21127.88369245 -.00000050  00000-0 -14245-5 0  9996
2 22566  71.0069 324.7367 0009029 141.7275 218.4490 14.14969038452223
COSMOS 2242             
1 22626U 93024A   21127.73760805  .00000208  00000-0  19730-4 0  9999
2 22626  82.5193 142.1101 0020564  84.7175 275.6389 14.88118272517068
SL-16 R/B               
1 22803U 93059B   21127.74435855 -.00000130  00000-0 -40774-4 0  9997
2 22803  70.9880 135.8467 0016528  14.4122 345.7469 14.16835658429234
ARIANE 40 R/B           
1 22830U 93061H   21127.91141443 -.00000013  00000-0  12145-4 0  9996
2 22830  98.7168 185.3130 0012130  91.5313 268.7260 14.31479639441249
COSMOS 2278             
1 23087U 94023A   21127.85748871  .00000306  00000-0  18636-3 0  9995
2 23087  71.0531 269.5800 0009956 214.6614 145.3860 14.13825385395297
SL-16 R/B               
1 23088U 94023B   21127.88150495  .00000130  00000-0  92200-4 0  9993
2 23088  70.9998 180.1673 0001217 122.7324 237.3916 14.14688510396190
SL-16 R/B               
1 23343U 94074B   21128.18326494  .00000024  00000-0  10725-4 0  9995
2 23343  97.9498 183.4240 0006960 172.9139 253.9413 14.76877725426551
SL-16 R/B               
1 23405U 94077B   21128.19434002  .00000259  00000-0  15778-3 0  9995
2 23405  70.9810 107.6481 0004149 300.3723  59.6989 14.15237917366555
ERS-2                   
1 23560U 95021A   21127.82068357  .00000795  00000-0  36701-4 0  9997
2 23560  98.5522 332.3112 0004249 132.0183 228.1413 15.23882280391509
ARIANE 40+ R/B          
1 23561U 95021B   21127.93194008  .00000030  00000-0  24901-4 0  9994
2 23561  98.6782 177.3342 0007188  21.7038 151.7500 14.38023743365201
SL-16 R/B               
1 23705U 95058B   21127.89217916  .00000044  00000-0  46887-4 0  9995
2 23705  71.0222 288.2304 0014631 289.2667  70.6873 14.15152600317877
SL-16 R/B               
1 24298U 96051B   21127.93237417 -.00000193  00000-0 -77801-4 0  9997
2 24298  70.8292 306.4086 0018210 234.4794 125.4629 14.12449097272176
ORBVIEW 2 (SEASTAR)     
1 24883U 97037A   21127.87901025  .00000024  00000-0  24759-4 0  9993
2 24883  98.6364 246.0243 0001781 197.1761 162.9363 14.33611336255196
SL-16 R/B               
1 25400U 98043G   21127.79229850 -.00000032  00000-0  46730-5 0  9991
2 25400  98.6384  64.2387 0010984 107.9320 252.3058 14.25475248187222
SL-16 R/B               
1 25407U 98045B   21127.91117528 -.00000008  00000-0  20118-4 0  9996
2 25407  71.0108 295.7006 0008504 213.2328 146.8262 14.15840037177001
ISS (ZARYA)             
1 25544U 98067A   21128.36207690  .00000366  00000-0  14807-4 0  9996
2 25544  51.6444 179.7055 0002844 333.5186 131.2445 15.48983420282429
SL-8 R/B                
1 25723U 99022C   21113.32388316  .12614863  12289-4  98116-4 0  9999
2 25723  48.3924  71.3057 0003192 305.2556  55.2408 16.52289309227173
CZ-4B R/B               
1 25732U 99025C   21127.86658205 -.00000016  00000-0  14381-4 0  9996
2 25732  98.9062 164.2248 0037418   7.3232 165.6243 14.17691963137782
OKEAN-O                 
1 25860U 99039A   21127.94420059  .00000038  00000-0  13064-4 0  9996
2 25860  98.1863 158.1320 0000822  90.5362 269.5942 14.76730613173405
SL-16 R/B               
1 25861U 99039B   21127.95495973  .00000027  00000-0  11205-4 0  9998
2 25861  98.2061 142.5373 0015314 190.9440 228.1417 14.78637314175570
DELTA 2 R/B             
1 25876U 99041E   21127.63830555 -.00000117  00000-0  19841-4 0  9996
2 25876  51.7650 110.4355 0530747 209.6183 147.3693 14.04568289114183
